{"fetched_at":"2026-04-02T05:43:41Z","count":6320,"tles":[{"name":"USA 81","line1":"1 21949U 92023A   26091.50222153  .00000211  00000+0  70578-4 0  9993","line2":"2 21949  85.0042 118.2752 0001629  68.7839 291.3527 14.32375438 98052","category":"Military"},{"name":"COSMOS 2219","line1":"1 22219U 92076A   26091.15717357 -.00000217  00000+0 -89199-4 0  9995","line2":"2 22219  71.0614 331.1053 0017774 173.5050 186.6307 14.14089614721559","category":"Other"},{"name":"SL-16 R/B","line1":"1 22566U 93016B   26091.39661017  .00000205  00000+0  12953-3 0  9990","line2":"2 22566  71.0075 167.4935 0012350 284.9144  75.0611 14.15306538705380","category":"Other"},{"name":"SL-16 R/B","line1":"1 22220U 92076B   26091.43608351 -.00000195  00000+0 -73357-4 0  9995","line2":"2 22220  70.9990 140.4624 0010803  54.1935  39.7325 14.16863109725051","category":"Other"},{"name":"INTERCOSMOS 25","line1":"1 21819U 91086A   26091.02766590  .00002235  00000+0  43197-3 0  9996","line2":"2 21819  82.6002 296.5030 1486432  68.8043 306.5090 12.12076949499391","category":"Other"},{"name":"ERS-1","line1":"1 21574U 91050A   26091.28828638  .00000342  00000+0  12388-3 0  9990","line2":"2 21574  98.7862 110.0895 0032828 133.9544 226.4359 14.39466444818987","category":"Other"},{"name":"ARIANE 40 R/B","line1":"1 21610U 91050F   26091.42416818  .00000327  00000+0  11035-3 0  9991","line2":"2 21610  98.1964 142.8022 0003344  29.1190 331.0187 14.42910021822272","category":"Other"},{"name":"COSMOS 2221","line1":"1 22236U 92080A   26091.17450166  .00002164  00000+0  18885-3 0  9997","line2":"2 22236  82.5006 257.5359 0015618 115.1100 245.1745 14.96296752784158","category":"Other"},{"name":"SL-8 R/B","line1":"1 21876U 92008B   26091.40312256  .00000009  00000+0 -71100-5 0  9997","line2":"2 21876  82.9238 250.8775 0035880  72.0986 317.3600 13.75969676712546","category":"Other"},{"name":"SL-16 R/B","line1":"1 22285U 92093B   26091.07123329  .00000064  00000+0  56891-4 0  9999","line2":"2 22285  71.0226 317.2836 0006583 272.1865  87.8504 14.15455812716329","category":"Other"},{"name":"SL-8 R/B","line1":"1 21938U 92020B   26091.24290794  .00000043  00000+0  29410-4 0  9997","line2":"2 21938  82.9297 137.0156 0027891 232.9090 195.8132 13.75550633704230","category":"Other"},{"name":"COSMOS 2228","line1":"1 22286U 92094A   26091.50995729  .00002885  00000+0  24594-3 0  9997","line2":"2 22286  82.5194 215.4609 0017085 221.6480 138.3443 14.97312418779472","category":"Other"}]}